[{"OBJECT_NAME":"STARLINK-3699","OBJECT_ID":"2022-025L","EPOCH":"2026-03-09T04:05:59.416512","MEAN_MOTION":15.06396713,"ECCENTRICITY":0.00014968,"INCLINATION":53.0559,"RA_OF_ASC_NODE":33.159,"ARG_OF_PERICENTER":81.9854,"MEAN_ANOMALY":278.1305,"EPHEMERIS_TYPE":0,"CLASSIFICATION_TYPE":"U","NORAD_CAT_ID":51966,"ELEMENT_SET_NO":999,"REV_AT_EPOCH":22084,"BSTAR":3.0695578e-5,"MEAN_MOTION_DOT":1.76e-6,"MEAN_MOTION_DDOT":0},{"OBJECT_NAME":"ELECTRON KICK STAGE R\/B","OBJECT_ID":"2024-172G","EPOCH":"2026-03-09T20:17:57.250464","MEAN_MOTION":14.97730495,"ECCENTRICITY":0.00502098,"INCLINATION":98.0041,"RA_OF_ASC_NODE":176.7734,"ARG_OF_PERICENTER":80.5411,"MEAN_ANOMALY":280.148,"EPHEMERIS_TYPE":0,"CLASSIFICATION_TYPE":"U","NORAD_CAT_ID":61226,"ELEMENT_SET_NO":999,"REV_AT_EPOCH":7982,"BSTAR":0.00056326684,"MEAN_MOTION_DOT":6.716e-5,"MEAN_MOTION_DDOT":0}]
